{
    "links": {
        "self": "http://www.neowsapp.com/rest/v1/neo/3879255?api_key=iIulBulltgU6a56xZRHN4H3l9WmuAYTsLGpBGhQ2"
    },
    "id": "3879255",
    "neo_reference_id": "3879255",
    "name": "(2019 UG1)",
    "designation": "2019 UG1",
    "nasa_jpl_url": "http://ssd.jpl.nasa.gov/sbdb.cgi?sstr=3879255",
    "absolute_magnitude_h": 26.2,
    "estimated_diameter": {
        "kilometers": {
            "estimated_diameter_min": 0.0152951935,
            "estimated_diameter_max": 0.0342010925
        },
        "meters": {
            "estimated_diameter_min": 15.2951935344,
            "estimated_diameter_max": 34.201092472
        },
        "miles": {
            "estimated_diameter_min": 0.0095039897,
            "estimated_diameter_max": 0.021251567
        },
        "feet": {
            "estimated_diameter_min": 50.1810827555,
            "estimated_diameter_max": 112.2083122258
        }
    },
    "is_potentially_hazardous_asteroid": false,
    "close_approach_data": [
        {
            "close_approach_date": "1917-09-18",
            "close_approach_date_full": "1917-Sep-18 23:15",
            "epoch_date_close_approach": -1649983500000,
            "relative_velocity": {
                "kilometers_per_second": "13.9801183107",
                "kilometers_per_hour": "50328.4259185006",
                "miles_per_hour": "31272.1266491928"
            },
            "miss_distance": {
                "astronomical": "0.2398220431",
                "lunar": "93.2907747659",
                "kilometers": "35876866.826808197",
                "miles": "22292851.3129272386"
            },
            "orbiting_body": "Earth"
        },
        {
            "close_approach_date": "2017-10-19",
            "close_approach_date_full": "2017-Oct-19 23:29",
            "epoch_date_close_approach": 1508455740000,
            "relative_velocity": {
                "kilometers_per_second": "3.4776891366",
                "kilometers_per_hour": "12519.6808917942",
                "miles_per_hour": "7779.2428296818"
            },
            "miss_distance": {
                "astronomical": "1.3925971355",
                "lunar": "541.7202857095",
                "kilometers": "208329565.238901385",
                "miles": "129449989.163693713"
            },
            "orbiting_body": "Juptr"
        },
        {
            "close_approach_date": "2019-10-22",
            "close_approach_date_full": "2019-Oct-22 00:47",
            "epoch_date_close_approach": 1571705220000,
            "relative_velocity": {
                "kilometers_per_second": "8.9261960469",
                "kilometers_per_hour": "32134.3057688405",
                "miles_per_hour": "19967.0079373109"
            },
            "miss_distance": {
                "astronomical": "0.014586586",
                "lunar": "5.674181954",
                "kilometers": "2182122.19617182",
                "miles": "1355907.858418316"
            },
            "orbiting_body": "Earth"
        }
    ],
    "orbital_data": {
        "orbit_id": "5",
        "orbit_determination_date": "2019-11-06 05:01:10",
        "first_observation_date": "2019-10-20",
        "last_observation_date": "2019-10-27",
        "data_arc_in_days": 7,
        "observations_used": 37,
        "orbit_uncertainty": "7",
        "minimum_orbit_intersection": ".0120676",
        "jupiter_tisserand_invariant": "3.161",
        "epoch_osculation": "2459000.5",
        "eccentricity": ".6025165659541064",
        "semi_major_axis": "2.527647315466998",
        "inclination": "7.585105957807744",
        "ascending_node_longitude": "30.44248224486324",
        "orbital_period": "1467.82115089718",
        "perihelion_distance": "1.004697935008706",
        "perihelion_argument": "5.244621715181631",
        "aphelion_distance": "4.050596695925289",
        "perihelion_time": "2458784.453072385415",
        "mean_anomaly": "52.98799100538297",
        "mean_motion": ".2452614882814273",
        "equinox": "J2000",
        "orbit_class": {
            "orbit_class_type": "APO",
            "orbit_class_description": "Near-Earth asteroid orbits which cross the Earth’s orbit similar to that of 1862 Apollo",
            "orbit_class_range": "a (semi-major axis) > 1.0 AU; q (perihelion) < 1.017 AU"
        }
    },
    "is_sentry_object": false
}